From:	Horizons Ephemeris System <horizons@ssd.jpl.nasa.gov>
Sent:	Friday, December 4, 2020 11:41 AM
Subject:	[Horizons] MAJOR BODY #C(usr={180.,-20.,.600^G}@301)_T(301) (1/1)

 Automated mail xmit by MAIL_REQUEST, PID= 13711 Fri Dec  4 09:41:11 2020
++++++++++++++++++++++++++++++++ (part 1 of 1)  +++++++++++++++++++++++++++++++
*******************************************************************************
 Revised: July 31, 2013             Moon / (Earth)                          301
 
 GEOPHYSICAL DATA (updated 2018-Aug-15):
  Vol. mean radius, km  = 1737.53+-0.03    Mass, x10^22 kg       =    7.349
  Radius (gravity), km  = 1738.0           Surface emissivity    =    0.92
  Radius (IAU), km      = 1737.4           GM, km^3/s^2          = 4902.800066
  Density, g/cm^3       =    3.3437        GM 1-sigma, km^3/s^2  =  +-0.0001  
  V(1,0)                =   +0.21          Surface accel., m/s^2 =    1.62
  Earth/Moon mass ratio = 81.3005690769    Farside crust. thick. = ~80 - 90 km
  Mean crustal density  = 2.97+-.07 g/cm^3 Nearside crust. thick.= 58+-8 km 
  Heat flow, Apollo 15  = 3.1+-.6 mW/m^2   Mean angular diameter = 31'05.2"
  Heat flow, Apollo 17  = 2.2+-.5 mW/m^2   Sid. rot. rate, rad/s = 0.0000026617
  Geometric Albedo      = 0.12             Mean solar day        = 29.5306 d
  Obliquity to orbit    = 6.67 deg         Orbit period          = 27.321582 d
  Semi-major axis, a    = 384400 km        Eccentricity          = 0.05490
  Mean motion, rad/s    = 2.6616995x10^-6  Inclination           = 5.145 deg
  Apsidal period        = 3231.50 d        Nodal period          = 6798.38 d
                                 Perihelion  Aphelion    Mean
  Solar Constant (W/m^2)         1414+-7     1323+-7     1368+-7
  Maximum Planetary IR (W/m^2)   1314        1226        1268
  Minimum Planetary IR (W/m^2)      5.2         5.2         5.2
********************************************************************************
 
 
*******************************************************************************
Ephemeris / MAIL_REQUEST Fri Dec  4 09:41:10 2020 Pasadena, USA  / Horizons
*******************************************************************************
Target body name: Moon (301)                      {source: DE431mx}
Center body name: Moon (301)                      {source: DE431mx}
Center-site name: (user defined site below)
*******************************************************************************
Start time      : A.D. 2020-Jan-01 00:00:00.0000 TDB
Stop  time      : A.D. 2039-Jan-01 00:00:00.0000 TDB
Step-size       : 10000 steps
*******************************************************************************
Center geodetic : 180.000000,-20.000000,0.6000000 {E-lon(deg),Lat(deg),Alt(km)}
Center cylindric: 180.000000,1633.18577,-594.4310 {E-lon(deg),Dxy(km),Dz(km)}
Center pole/equ : IAU_MOON                        {East-longitude positive}
Center radii    : 1737.4 x 1737.4 x 1737.4 km     {Equator, meridian, pole}    
Output units    : KM-S
Output type     : GEOMETRIC cartesian states
Output format   : 3 (position, velocity, LT, range, range-rate)
Reference frame : Ecliptic of J2000.0
*******************************************************************************
JDTDB
   X     Y     Z
   VX    VY    VZ
   LT    RG    RR
*******************************************************************************
$$SOE
2459182.620000000 = A.D. 2020-Nov-29 02:52:48.0000 TDB 
  -9.680281359419188E+02 -1.324299604966239E+03  5.742787514013368E+02
   3.531107135429194E-03 -2.535093039996811E-03  1.061999012700217E-04
   5.797343974543885E-03  1.738000000000000E+03  1.916380364715460E-19
2459183.314000000 = A.D. 2020-Nov-29 19:32:09.6000 TDB 
  -7.450917805835174E+02 -1.458793057204137E+03  5.808657803313030E+02
   3.889066373023172E-03 -1.941366234980646E-03  1.130378235839036E-04
   5.797343974543886E-03  1.738000000000000E+03  5.589442730420090E-19
2459184.008000000 = A.D. 2020-Nov-30 12:11:31.2000 TDB 
  -5.036170756201869E+02 -1.556127393004105E+03  5.877766394524543E+02
   4.148135219959834E-03 -1.298296563488034E-03  1.169779087010003E-04
   5.797343974543885E-03  1.738000000000000E+03 -1.038039364220874E-19
2459184.702000000 = A.D. 2020-Dec-01 04:50:52.8000 TDB 
  -2.497439947227064E+02 -1.613829072993747E+03  5.948341451699719E+02
   4.301733056665669E-03 -6.222405957676086E-04  1.179186408938301E-04
   5.797343974543885E-03  1.738000000000001E+03  8.783410004945855E-20
2459185.396000000 = A.D. 2020-Dec-01 21:30:14.4000 TDB 
   1.007270404358902E+01 -1.630432546723938E+03  6.018573346039284E+02
   4.345963157660913E-03  6.960864686982149E-05  1.158357615835814E-04
   5.797343974543885E-03  1.738000000000000E+03  2.395475455894324E-20
2459186.090000000 = A.D. 2020-Dec-02 14:09:36.0000 TDB 
   2.692277047770589E+02 -1.605517358169604E+03  6.086661281824140E+02
   4.279710951796157E-03  7.596595368835300E-04  1.107829284104017E-04
   5.797343974543883E-03  1.738000000000000E+03  1.038039364220874E-19
2459186.784000000 = A.D. 2020-Dec-03 06:48:57.6000 TDB 
   5.211331331239402E+02 -1.539718645631486E+03  6.150859694832643E+02
   4.104671352619933E-03  1.430369521020859E-03  1.028902988586366E-04
   5.797343974543885E-03  1.738000000000000E+03 -1.517134455399739E-19
2459187.478000000 = A.D. 2020-Dec-03 23:28:19.2000 TDB 
   7.593860485927336E+02 -1.434710788605537E+03  6.209523188309971E+02
   3.825304569140861E-03  2.064691206488777E-03  9.236108139960700E-05
   5.797343974543883E-03  1.738000000000000E+03  5.469668957625376E-19
2459188.172000000 = A.D. 2020-Dec-04 16:07:40.8000 TDB 
   9.779311693921361E+02 -1.293164638719247E+03  6.261148817089788E+02
   3.448721634844526E-03  2.646505499532440E-03  7.946616244625397E-05
   5.797343974543883E-03  1.738000000000000E+03  3.912609911294064E-19
2459188.866000000 = A.D. 2020-Dec-05 08:47:02.4000 TDB 
   1.171214697476981E+03 -1.118679443008576E+03  6.304414613617388E+02
   2.984502676896567E-03  3.161030809956942E-03  6.453697681469838E-05
   5.797343974543883E-03  1.738000000000000E+03  8.703560823082713E-19
2459189.560000000 = A.D. 2020-Dec-06 01:26:24.0000 TDB 
   1.334325344029133E+03 -9.156912086477930E+02  6.338213365662912E+02
   2.444452643087146E-03  3.595197978089532E-03  4.795683922443478E-05
   5.797343974543884E-03  1.738000000000000E+03  7.984918186314416E-19
2459190.254000000 = A.D. 2020-Dec-06 18:05:45.6000 TDB 
   1.463118986188464E+03 -6.893598526981632E+02  6.361680797893030E+02
   1.842300769685882E-03  3.937981480157462E-03  3.015099201261469E-05
   5.797343974543885E-03  1.738000000000000E+03  2.575136115086399E-19
2459190.948000000 = A.D. 2020-Dec-07 10:45:07.2000 TDB 
   1.554323805430759E+03 -4.454380139411404E+02  6.374217470461906E+02
   1.193351472111799E-03  4.180678597896969E-03  1.157564871051174E-05
   5.797343974543885E-03  1.738000000000000E+03 -6.188311594393672E-20
2459191.642000000 = A.D. 2020-Dec-08 03:24:28.8000 TDB 
   1.605623255658145E+03 -1.901248634217006E+02  6.375503879683715E+02
   5.140955399963967E-04  4.317129568164054E-03 -7.293674688503430E-06
   5.797343974543884E-03  1.738000000000000E+03 -1.996229546578604E-20
2459192.336000000 = A.D. 2020-Dec-08 20:03:50.4000 TDB 
   1.615714771998580E+03  7.009137498331324E+01  6.365508421944996E+02
  -1.782085077488957E-04  4.343873223989095E-03 -2.597424661300975E-05
   5.797343974543885E-03  1.738000000000000E+03  1.776644296454957E-19
2459193.030000000 = A.D. 2020-Dec-09 12:43:12.0000 TDB 
   1.584342745350087E+03  3.285982016953481E+02  6.344488057354450E+02
  -8.659723250748453E-04  4.260234262859214E-03 -4.398833509949547E-05
   5.797343974543884E-03  1.738000000000000E+03  2.814683660675832E-19
2459193.724000000 = A.D. 2020-Dec-10 05:22:33.6000 TDB 
   1.512304937544440E+03  5.788267433422327E+02  6.312981681191012E+02
  -1.531723850593261E-03  4.068339991630270E-03 -6.087526924408032E-05
   5.797343974543884E-03  1.738000000000000E+03 -7.026728003956686E-19
2459194.418000000 = A.D. 2020-Dec-10 22:01:55.2000 TDB 
   1.401432181592118E+03  8.144185302230840E+02  6.271796377651540E+02
  -2.158550388346146E-03  3.773066159524743E-03 -7.620307385687065E-05
   5.797343974543884E-03  1.738000000000000E+03  6.747255867435681E-19
2459195.112000000 = A.D. 2020-Dec-11 14:41:16.8000 TDB 
   1.254541884387015E+03  1.029386929947262E+03  6.221986891439334E+02
  -2.730527499258682E-03  3.381913259702751E-03 -8.957941319273372E-05
   5.797343974543884E-03  1.738000000000000E+03 -2.036154137510176E-19
2459195.806000000 = A.D. 2020-Dec-12 07:20:38.4000 TDB 
   1.075366509015608E+03  1.218269152901440E+03  6.164828808461691E+02
  -3.233122900269650E-03  2.904816414445724E-03 -1.006615885171416E-04
   5.797343974543883E-03  1.738000000000000E+03 -2.195852501236464E-19
2459196.500000000 = A.D. 2020-Dec-13 00:00:00.0000 TDB 
   8.684588442753835E+02  1.376264982217140E+03  6.101786087062721E+02
  -3.653565188393183E-03  2.353893618390218E-03 -1.091653442249713E-04
   5.797343974543884E-03  1.738000000000000E+03  4.072308275020352E-19
2459197.194000000 = A.D. 2020-Dec-13 16:39:21.6000 TDB 
   6.390764546795833E+02  1.499358714167074E+03  6.034473724571467E+02
  -3.981168078362558E-03  1.743138659211225E-03 -1.148722504236422E-04
   5.797343974543884E-03  1.738000000000001E+03  3.433514820115198E-19
2459197.888000000 = A.D. 2020-Dec-14 09:18:43.2000 TDB 
   3.930482305530201E+02  1.584421216470660E+03  5.964616477668737E+02
  -4.207601945908822E-03  1.088066428134989E-03 -1.176354493508743E-04
   5.797343974543884E-03  1.738000000000000E+03 -3.114118092662623E-19
2459198.582000000 = A.D. 2020-Dec-15 01:58:04.8000 TDB 
   1.366264116761610E+02  1.629289511601170E+03  5.894004674403625E+02
  -4.327105779059957E-03  4.053195389909308E-04 -1.173835821496098E-04
   5.797343974543884E-03  1.738000000000000E+03 -8.783410004945857E-20
